[{"OBJECT_NAME":"STARLINK-11139 [DTC]","OBJECT_ID":"2024-141E","EPOCH":"2025-11-25T02:52:35.414976","MEAN_MOTION":15.68857095,"ECCENTRICITY":0.0001057,"INCLINATION":53.1588,"RA_OF_ASC_NODE":241.4134,"ARG_OF_PERICENTER":102.2842,"MEAN_ANOMALY":257.8294,"EPHEMERIS_TYPE":0,"CLASSIFICATION_TYPE":"U","NORAD_CAT_ID":60402,"ELEMENT_SET_NO":999,"REV_AT_EPOCH":7532,"BSTAR":1.1664e-5,"MEAN_MOTION_DOT":7.83e-6,"MEAN_MOTION_DDOT":0},{"OBJECT_NAME":"STARLINK-11158 [DTC]","OBJECT_ID":"2024-141F","EPOCH":"2025-11-25T01:16:00.878880","MEAN_MOTION":15.6973612,"ECCENTRICITY":0.000129,"INCLINATION":53.1604,"RA_OF_ASC_NODE":242.4361,"ARG_OF_PERICENTER":76.0651,"MEAN_ANOMALY":284.051,"EPHEMERIS_TYPE":0,"CLASSIFICATION_TYPE":"U","NORAD_CAT_ID":60403,"ELEMENT_SET_NO":999,"REV_AT_EPOCH":7525,"BSTAR":3.2138e-5,"MEAN_MOTION_DOT":3.31e-5,"MEAN_MOTION_DDOT":0},{"OBJECT_NAME":"STARLINK-11199 [DTC]","OBJECT_ID":"2024-141G","EPOCH":"2025-11-25T01:08:57.221664","MEAN_MOTION":15.69725941,"ECCENTRICITY":0.0001222,"INCLINATION":53.1589,"RA_OF_ASC_NODE":242.4037,"ARG_OF_PERICENTER":92.4287,"MEAN_ANOMALY":267.687,"EPHEMERIS_TYPE":0,"CLASSIFICATION_TYPE":"U","NORAD_CAT_ID":60404,"ELEMENT_SET_NO":999,"REV_AT_EPOCH":7530,"BSTAR":2.5362e-5,"MEAN_MOTION_DOT":2.487e-5,"MEAN_MOTION_DDOT":0},{"OBJECT_NAME":"STARLINK-11081 [DTC]","OBJECT_ID":"2024-141H","EPOCH":"2025-11-25T01:01:54.255648","MEAN_MOTION":15.69713727,"ECCENTRICITY":0.0001488,"INCLINATION":53.1594,"RA_OF_ASC_NODE":242.3751,"ARG_OF_PERICENTER":85.3751,"MEAN_ANOMALY":274.7437,"EPHEMERIS_TYPE":0,"CLASSIFICATION_TYPE":"U","NORAD_CAT_ID":60405,"ELEMENT_SET_NO":999,"REV_AT_EPOCH":7525,"BSTAR":1.0334e-5,"MEAN_MOTION_DOT":6.63e-6,"MEAN_MOTION_DDOT":0},{"OBJECT_NAME":"STARLINK-11150 [DTC]","OBJECT_ID":"2024-141J","EPOCH":"2025-11-25T00:54:49.883904","MEAN_MOTION":15.69725428,"ECCENTRICITY":0.0001137,"INCLINATION":53.1586,"RA_OF_ASC_NODE":242.3396,"ARG_OF_PERICENTER":73.7515,"MEAN_ANOMALY":286.3628,"EPHEMERIS_TYPE":0,"CLASSIFICATION_TYPE":"U","NORAD_CAT_ID":60406,"ELEMENT_SET_NO":999,"REV_AT_EPOCH":7530,"BSTAR":1.8658e-5,"MEAN_MOTION_DOT":1.674e-5,"MEAN_MOTION_DDOT":0},{"OBJECT_NAME":"STARLINK-11136 [DTC]","OBJECT_ID":"2024-141K","EPOCH":"2025-11-25T00:47:47.215968","MEAN_MOTION":15.69713272,"ECCENTRICITY":0.0001741,"INCLINATION":53.1595,"RA_OF_ASC_NODE":242.3066,"ARG_OF_PERICENTER":56.0324,"MEAN_ANOMALY":304.0859,"EPHEMERIS_TYPE":0,"CLASSIFICATION_TYPE":"U","NORAD_CAT_ID":60407,"ELEMENT_SET_NO":999,"REV_AT_EPOCH":7525,"BSTAR":-7.6669e-6,"MEAN_MOTION_DOT":-1.518e-5,"MEAN_MOTION_DDOT":0},{"OBJECT_NAME":"STARLINK-11196 [DTC]","OBJECT_ID":"2024-141L","EPOCH":"2025-11-25T00:40:43.061952","MEAN_MOTION":15.69714469,"ECCENTRICITY":0.0001222,"INCLINATION":53.1595,"RA_OF_ASC_NODE":242.274,"ARG_OF_PERICENTER":97.695,"MEAN_ANOMALY":262.4207,"EPHEMERIS_TYPE":0,"CLASSIFICATION_TYPE":"U","NORAD_CAT_ID":60408,"ELEMENT_SET_NO":999,"REV_AT_EPOCH":7530,"BSTAR":5.9606e-6,"MEAN_MOTION_DOT":1.33e-6,"MEAN_MOTION_DDOT":0},{"OBJECT_NAME":"STARLINK-11174 [DTC]","OBJECT_ID":"2024-141M","EPOCH":"2025-11-25T00:26:35.210112","MEAN_MOTION":15.69714252,"ECCENTRICITY":0.0001345,"INCLINATION":53.1597,"RA_OF_ASC_NODE":242.2043,"ARG_OF_PERICENTER":107.567,"MEAN_ANOMALY":252.5495,"EPHEMERIS_TYPE":0,"CLASSIFICATION_TYPE":"U","NORAD_CAT_ID":60409,"ELEMENT_SET_NO":999,"REV_AT_EPOCH":7525,"BSTAR":5.6886e-6,"MEAN_MOTION_DOT":1.0e-6,"MEAN_MOTION_DDOT":0},{"OBJECT_NAME":"STARLINK-11191 [DTC]","OBJECT_ID":"2024-141N","EPOCH":"2025-11-25T00:19:31.653984","MEAN_MOTION":15.69712476,"ECCENTRICITY":0.0001396,"INCLINATION":53.1597,"RA_OF_ASC_NODE":242.1751,"ARG_OF_PERICENTER":95.6718,"MEAN_ANOMALY":264.4459,"EPHEMERIS_TYPE":0,"CLASSIFICATION_TYPE":"U","NORAD_CAT_ID":60410,"ELEMENT_SET_NO":999,"REV_AT_EPOCH":7530,"BSTAR":1.6456e-6,"MEAN_MOTION_DOT":-3.9e-6,"MEAN_MOTION_DDOT":0},{"OBJECT_NAME":"STARLINK-32244","OBJECT_ID":"2024-141P","EPOCH":"2025-11-25T02:15:50.436000","MEAN_MOTION":15.30198054,"ECCENTRICITY":9.75e-5,"INCLINATION":53.1614,"RA_OF_ASC_NODE":8.633,"ARG_OF_PERICENTER":105.4478,"MEAN_ANOMALY":254.663,"EPHEMERIS_TYPE":0,"CLASSIFICATION_TYPE":"U","NORAD_CAT_ID":60411,"ELEMENT_SET_NO":999,"REV_AT_EPOCH":7356,"BSTAR":2.7741e-5,"MEAN_MOTION_DOT":4.63e-6,"MEAN_MOTION_DDOT":0},{"OBJECT_NAME":"STARLINK-32186","OBJECT_ID":"2024-141Q","EPOCH":"2025-11-25T02:11:16.922976","MEAN_MOTION":15.30196983,"ECCENTRICITY":0.0001022,"INCLINATION":53.1605,"RA_OF_ASC_NODE":8.6122,"ARG_OF_PERICENTER":99.2702,"MEAN_ANOMALY":260.8415,"EPHEMERIS_TYPE":0,"CLASSIFICATION_TYPE":"U","NORAD_CAT_ID":60412,"ELEMENT_SET_NO":999,"REV_AT_EPOCH":7350,"BSTAR":-1.4218e-6,"MEAN_MOTION_DOT":-4.01e-6,"MEAN_MOTION_DDOT":0},{"OBJECT_NAME":"STARLINK-32178","OBJECT_ID":"2024-141R","EPOCH":"2025-11-25T03:31:39.419328","MEAN_MOTION":15.30202705,"ECCENTRICITY":0.0001384,"INCLINATION":53.1615,"RA_OF_ASC_NODE":8.2519,"ARG_OF_PERICENTER":90.616,"MEAN_ANOMALY":269.4999,"EPHEMERIS_TYPE":0,"CLASSIFICATION_TYPE":"U","NORAD_CAT_ID":60413,"ELEMENT_SET_NO":999,"REV_AT_EPOCH":7351,"BSTAR":2.4019e-5,"MEAN_MOTION_DOT":3.52e-6,"MEAN_MOTION_DDOT":0},{"OBJECT_NAME":"STARLINK-32234","OBJECT_ID":"2024-141S","EPOCH":"2025-11-25T02:06:43.417728","MEAN_MOTION":15.30196717,"ECCENTRICITY":0.0001173,"INCLINATION":53.161,"RA_OF_ASC_NODE":8.5927,"ARG_OF_PERICENTER":101.8466,"MEAN_ANOMALY":258.2667,"EPHEMERIS_TYPE":0,"CLASSIFICATION_TYPE":"U","NORAD_CAT_ID":60414,"ELEMENT_SET_NO":999,"REV_AT_EPOCH":7356,"BSTAR":3.0537e-6,"MEAN_MOTION_DOT":-2.69e-6,"MEAN_MOTION_DDOT":0},{"OBJECT_NAME":"STARLINK-32265","OBJECT_ID":"2024-141T","EPOCH":"2025-11-25T02:02:09.898656","MEAN_MOTION":15.30201114,"ECCENTRICITY":0.0001083,"INCLINATION":53.162,"RA_OF_ASC_NODE":8.5728,"ARG_OF_PERICENTER":101.3577,"MEAN_ANOMALY":258.7545,"EPHEMERIS_TYPE":0,"CLASSIFICATION_TYPE":"U","NORAD_CAT_ID":60415,"ELEMENT_SET_NO":999,"REV_AT_EPOCH":7356,"BSTAR":-7.9449e-6,"MEAN_MOTION_DOT":-5.94e-6,"MEAN_MOTION_DDOT":0},{"OBJECT_NAME":"STARLINK-32197","OBJECT_ID":"2024-141U","EPOCH":"2025-11-25T02:11:24.369792","MEAN_MOTION":15.30182095,"ECCENTRICITY":0.0001136,"INCLINATION":53.1612,"RA_OF_ASC_NODE":358.6497,"ARG_OF_PERICENTER":99.4047,"MEAN_ANOMALY":260.7082,"EPHEMERIS_TYPE":0,"CLASSIFICATION_TYPE":"U","NORAD_CAT_ID":60416,"ELEMENT_SET_NO":999,"REV_AT_EPOCH":7364,"BSTAR":7.3913e-5,"MEAN_MOTION_DOT":1.829e-5,"MEAN_MOTION_DDOT":0},{"OBJECT_NAME":"STARLINK-32255","OBJECT_ID":"2024-141V","EPOCH":"2025-11-25T03:22:32.249856","MEAN_MOTION":15.30192447,"ECCENTRICITY":9.22e-5,"INCLINATION":53.1608,"RA_OF_ASC_NODE":8.2088,"ARG_OF_PERICENTER":97.5641,"MEAN_ANOMALY":262.5464,"EPHEMERIS_TYPE":0,"CLASSIFICATION_TYPE":"U","NORAD_CAT_ID":60417,"ELEMENT_SET_NO":999,"REV_AT_EPOCH":7357,"BSTAR":9.9156e-5,"MEAN_MOTION_DOT":2.578e-5,"MEAN_MOTION_DDOT":0}]
