STARLINK-11139 [DTC]    
1 60402U 24141E   25329.11985434  .00000783  00000+0  11664-4 0  9999
2 60402  53.1588 241.4134 0001057 102.2842 257.8294 15.68857095 75323
STARLINK-11158 [DTC]    
1 60403U 24141F   25329.05278795  .00003310  00000+0  32138-4 0  9996
2 60403  53.1604 242.4361 0001290  76.0651 284.0510 15.69736120 75252
STARLINK-11199 [DTC]    
1 60404U 24141G   25329.04788451  .00002487  00000+0  25362-4 0  9996
2 60404  53.1589 242.4037 0001222  92.4287 267.6870 15.69725941 75308
STARLINK-11081 [DTC]    
1 60405U 24141H   25329.04298907  .00000663  00000+0  10334-4 0  9996
2 60405  53.1594 242.3751 0001488  85.3751 274.7437 15.69713727 75259
STARLINK-11150 [DTC]    
1 60406U 24141J   25329.03807736  .00001674  00000+0  18658-4 0  9992
2 60406  53.1586 242.3396 0001137  73.7515 286.3628 15.69725428 75304
STARLINK-11136 [DTC]    
1 60407U 24141K   25329.03318537 -.00001518  00000+0 -76669-5 0  9995
2 60407  53.1595 242.3066 0001741  56.0324 304.0859 15.69713272 75254
STARLINK-11196 [DTC]    
1 60408U 24141L   25329.02827618  .00000133  00000+0  59606-5 0  9992
2 60408  53.1595 242.2740 0001222  97.6950 262.4207 15.69714469 75302
STARLINK-11174 [DTC]    
1 60409U 24141M   25329.01846308  .00000100  00000+0  56886-5 0  9990
2 60409  53.1597 242.2043 0001345 107.5670 252.5495 15.69714252 75250
STARLINK-11191 [DTC]    
1 60410U 24141N   25329.01356081 -.00000390  00000+0  16456-5 0  9997
2 60410  53.1597 242.1751 0001396  95.6718 264.4459 15.69712476 75307
STARLINK-32244          
1 60411U 24141P   25329.09433375  .00000463  00000+0  27741-4 0  9996
2 60411  53.1614   8.6330 0000975 105.4478 254.6630 15.30198054 73567
STARLINK-32186          
1 60412U 24141Q   25329.09116809 -.00000401  00000+0 -14218-5 0  9997
2 60412  53.1605   8.6122 0001022  99.2702 260.8415 15.30196983 73504
STARLINK-32178          
1 60413U 24141R   25329.14698402  .00000352  00000+0  24019-4 0  9990
2 60413  53.1615   8.2519 0001384  90.6160 269.4999 15.30202705 73519
STARLINK-32234          
1 60414U 24141S   25329.08800252 -.00000269  00000+0  30537-5 0  9993
2 60414  53.1610   8.5927 0001173 101.8466 258.2667 15.30196717 73569
STARLINK-32265          
1 60415U 24141T   25329.08483679 -.00000594  00000+0 -79449-5 0  9991
2 60415  53.1620   8.5728 0001083 101.3577 258.7545 15.30201114 73566
STARLINK-32197          
1 60416U 24141U   25329.09125428  .00001829  00000+0  73913-4 0  9997
2 60416  53.1612 358.6497 0001136  99.4047 260.7082 15.30182095 73642
STARLINK-32255          
1 60417U 24141V   25329.14065104  .00002578  00000+0  99156-4 0  9997
2 60417  53.1608   8.2088 0000922  97.5641 262.5464 15.30192447 73571
